HAWK-12A                
1 64623U 25138C   26193.48158422  .00002125  00000+0  10639-3 0  9996
2 64623  97.4409 195.8421 0015322  55.3998 304.8679 15.18391328 57705
HAWK-13A                
1 67392U 26004AF  26193.48639248  .00002533  00000+0  12309-3 0  9994
2 67392  97.4443 191.9978 0003899 231.2470 128.8417 15.19345106 27603
HAWK-13C                
1 67393U 26004AG  26193.48624191  .00002544  00000+0  12362-3 0  9997
2 67393  97.4588 192.4167 0003735 235.7053 124.3828 15.19345142 27602
HAWK-13B                
1 67396U 26004AK  26193.48615227  .00002529  00000+0  12289-3 0  9991
2 67396  97.4529 192.2419 0005029 236.3542 123.7214 15.19344327 27602
HAWK-14B                
1 68436U 26067W   26193.32482338  .00002238  00000+0  11209-3 0  9992
2 68436  97.4558 151.4167 0001888   7.8734 352.2529 15.18416741 15750
HAWK-14C                
1 68441U 26067AB  26192.86362033  .00002426  00000+0  12119-3 0  9995
2 68441  97.4494 150.8446 0002958  32.5507 327.5909 15.18417591 15683
HAWK-14A                
1 68448U 26067AJ  26193.32504897  .00002312  00000+0  11567-3 0  9990
2 68448  97.4620 151.5412 0003615  22.8704 337.2690 15.18418556 15759
