{"fetched_at":"2026-07-12T17:32:47.614Z","source":"https://celestrak.org/NORAD/elements/gp.php?NAME=HAWK&FORMAT=JSON","constellation":"hawkeye-360","records":[{"OBJECT_NAME":"HAWK-12A","OBJECT_ID":"2025-138C","EPOCH":"2026-07-12T11:33:28.876608","CLASSIFICATION_TYPE":"U","MEAN_MOTION":15.18391328,"ECCENTRICITY":0.0015322,"INCLINATION":97.4409,"RA_OF_ASC_NODE":195.8421,"ARG_OF_PERICENTER":55.3998,"MEAN_ANOMALY":304.8679,"EPHEMERIS_TYPE":0,"NORAD_CAT_ID":64623,"ELEMENT_SET_NO":999,"REV_AT_EPOCH":5770,"BSTAR":0.00010639,"MEAN_MOTION_DOT":0.00002125,"MEAN_MOTION_DDOT":0},{"OBJECT_NAME":"HAWK-13A","OBJECT_ID":"2026-004AF","EPOCH":"2026-07-12T11:40:24.310272","CLASSIFICATION_TYPE":"U","MEAN_MOTION":15.19345106,"ECCENTRICITY":0.0003899,"INCLINATION":97.4443,"RA_OF_ASC_NODE":191.9978,"ARG_OF_PERICENTER":231.247,"MEAN_ANOMALY":128.8417,"EPHEMERIS_TYPE":0,"NORAD_CAT_ID":67392,"ELEMENT_SET_NO":999,"REV_AT_EPOCH":2760,"BSTAR":0.00012309,"MEAN_MOTION_DOT":0.00002533,"MEAN_MOTION_DDOT":0},{"OBJECT_NAME":"HAWK-13C","OBJECT_ID":"2026-004AG","EPOCH":"2026-07-12T11:40:11.301024","CLASSIFICATION_TYPE":"U","MEAN_MOTION":15.19345142,"ECCENTRICITY":0.0003735,"INCLINATION":97.4588,"RA_OF_ASC_NODE":192.4167,"ARG_OF_PERICENTER":235.7053,"MEAN_ANOMALY":124.3828,"EPHEMERIS_TYPE":0,"NORAD_CAT_ID":67393,"ELEMENT_SET_NO":999,"REV_AT_EPOCH":2760,"BSTAR":0.00012362,"MEAN_MOTION_DOT":0.00002544,"MEAN_MOTION_DDOT":0},{"OBJECT_NAME":"HAWK-13B","OBJECT_ID":"2026-004AK","EPOCH":"2026-07-12T11:40:03.556128","CLASSIFICATION_TYPE":"U","MEAN_MOTION":15.19344327,"ECCENTRICITY":0.0005029,"INCLINATION":97.4529,"RA_OF_ASC_NODE":192.2419,"ARG_OF_PERICENTER":236.3542,"MEAN_ANOMALY":123.7214,"EPHEMERIS_TYPE":0,"NORAD_CAT_ID":67396,"ELEMENT_SET_NO":999,"REV_AT_EPOCH":2760,"BSTAR":0.00012289,"MEAN_MOTION_DOT":0.00002529,"MEAN_MOTION_DDOT":0},{"OBJECT_NAME":"HAWK-14B","OBJECT_ID":"2026-067W","EPOCH":"2026-07-12T07:47:44.740032","CLASSIFICATION_TYPE":"U","MEAN_MOTION":15.18416741,"ECCENTRICITY":0.0001888,"INCLINATION":97.4558,"RA_OF_ASC_NODE":151.4167,"ARG_OF_PERICENTER":7.8734,"MEAN_ANOMALY":352.2529,"EPHEMERIS_TYPE":0,"NORAD_CAT_ID":68436,"ELEMENT_SET_NO":999,"REV_AT_EPOCH":1575,"BSTAR":0.00011209,"MEAN_MOTION_DOT":0.00002238,"MEAN_MOTION_DDOT":0},{"OBJECT_NAME":"HAWK-14C","OBJECT_ID":"2026-067AB","EPOCH":"2026-07-11T20:43:36.796512","CLASSIFICATION_TYPE":"U","MEAN_MOTION":15.18417591,"ECCENTRICITY":0.00029581,"INCLINATION":97.4494,"RA_OF_ASC_NODE":150.8446,"ARG_OF_PERICENTER":32.5507,"MEAN_ANOMALY":327.5909,"EPHEMERIS_TYPE":0,"NORAD_CAT_ID":68441,"ELEMENT_SET_NO":999,"REV_AT_EPOCH":1568,"BSTAR":0.00012119434,"MEAN_MOTION_DOT":0.00002426,"MEAN_MOTION_DDOT":0},{"OBJECT_NAME":"HAWK-14A","OBJECT_ID":"2026-067AJ","EPOCH":"2026-07-12T07:48:04.231008","CLASSIFICATION_TYPE":"U","MEAN_MOTION":15.18418556,"ECCENTRICITY":0.0003615,"INCLINATION":97.462,"RA_OF_ASC_NODE":151.5412,"ARG_OF_PERICENTER":22.8704,"MEAN_ANOMALY":337.269,"EPHEMERIS_TYPE":0,"NORAD_CAT_ID":68448,"ELEMENT_SET_NO":999,"REV_AT_EPOCH":1575,"BSTAR":0.00011567,"MEAN_MOTION_DOT":0.00002312,"MEAN_MOTION_DDOT":0}]}
